start=new Date('2022-04-10T00:00:00.000Z').valueOf();
sats=[{"REV_AT_EPOCH":"8116","EPOCH":"2022-04-09T20:11:09.698208","APOAPSIS":"548.176","ECCENTRICITY":"0.00014040","GP_ID":"200862996","DECAY_DATE":null,"REF_FRAME":"TEME","TLE_LINE1":"1 46748U 20074K   22099.84108447  .00002842  00000-0  20956-3 0  9991","INCLINATION":"53.0539","RA_OF_ASC_NODE":"260.4648","OBJECT_ID":"2020-074K","FILE":"3395351","MEAN_ANOMALY":"293.2699","ELEMENT_SET_NO":"999","MEAN_MOTION":"15.06403360","SEMIMAJOR_AXIS":"6925.338","MEAN_MOTION_DDOT":"0.0000000000000","CLASSIFICATION_TYPE":"U","PERIOD":"95.592","COUNTRY_CODE":"US","LAUNCH_DATE":"2020-10-24","CENTER_NAME":"EARTH","PERIAPSIS":"546.231","TLE_LINE2":"2 46748  53.0539 260.4648 0001404  66.8438 293.2699 15.06403360 81164","OBJECT_NAME":"STARLINK-1910","BSTAR":"0.00020956000000","MEAN_ELEMENT_THEORY":"SGP4","SITE":"AFETR","EPHEMERIS_TYPE":"0","NORAD_CAT_ID":"46748","TIME_SYSTEM":"UTC","RCS_SIZE":"LARGE","ARG_OF_PERICENTER":"66.8438","MEAN_MOTION_DOT":"0.00002842","OBJECT_TYPE":"PAYLOAD"},{"LAUNCH_DATE":"2020-10-24","CENTER_NAME":"EARTH","PERIAPSIS":"545.967","TLE_LINE2":"2 46749  53.0544 261.0289 0001820  68.0460 292.0722 15.06395495 81141","OBJECT_NAME":"STARLINK-1911","PERIOD":"95.592","COUNTRY_CODE":"US","ARG_OF_PERICENTER":"68.0460","MEAN_MOTION_DOT":"-0.00002232","OBJECT_TYPE":"PAYLOAD","BSTAR":"-0.00013097000000","MEAN_ELEMENT_THEORY":"SGP4","SITE":"AFETR","NORAD_CAT_ID":"46749","EPHEMERIS_TYPE":"0","TIME_SYSTEM":"UTC","RCS_SIZE":"LARGE","GP_ID":"200861771","ECCENTRICITY":"0.00018200","DECAY_DATE":null,"TLE_LINE1":"1 46749U 20074L   22099.71577537 -.00002232  00000-0 -13097-3 0  9991","REF_FRAME":"TEME","INCLINATION":"53.0544","REV_AT_EPOCH":"8114","EPOCH":"2022-04-09T17:10:42.991968","APOAPSIS":"548.488","SEMIMAJOR_AXIS":"6925.362","MEAN_MOTION_DDOT":"0.0000000000000","CLASSIFICATION_TYPE":"U","OBJECT_ID":"2020-074L","RA_OF_ASC_NODE":"261.0289","FILE":"3395351","ELEMENT_SET_NO":"999","MEAN_ANOMALY":"292.0722","MEAN_MOTION":"15.06395495"},{"CLASSIFICATION_TYPE":"U","MEAN_MOTION_DDOT":"0.0000000000000","SEMIMAJOR_AXIS":"6925.353","RA_OF_ASC_NODE":"260.4443","OBJECT_ID":"2020-074N","FILE":"3395351","MEAN_MOTION":"15.06398437","ELEMENT_SET_NO":"999","MEAN_ANOMALY":"286.3792","TLE_LINE1":"1 46751U 20074N   22099.84477719  .00001827  00000-0  14153-3 0  9990","INCLINATION":"53.0539","REF_FRAME":"TEME","ECCENTRICITY":"0.00015040","GP_ID":"200862524","DECAY_DATE":null,"APOAPSIS":"548.260","REV_AT_EPOCH":"8116","EPOCH":"2022-04-09T20:16:28.749216","MEAN_MOTION_DOT":"0.00001827","OBJECT_TYPE":"PAYLOAD","ARG_OF_PERICENTER":"73.7362","NORAD_CAT_ID":"46751","EPHEMERIS_TYPE":"0","RCS_SIZE":"LARGE","TIME_SYSTEM":"UTC","BSTAR":"0.00014153000000","MEAN_ELEMENT_THEORY":"SGP4","SITE":"AFETR","OBJECT_NAME":"STARLINK-1920","LAUNCH_DATE":"2020-10-24","CENTER_NAME":"EARTH","PERIAPSIS":"546.177","TLE_LINE2":"2 46751  53.0539 260.4443 0001504  73.7362 286.3792 15.06398437 81160","COUNTRY_CODE":"US","PERIOD":"95.592"},{"PERIOD":"95.592","COUNTRY_CODE":"US","LAUNCH_DATE":"2020-10-24","TLE_LINE2":"2 46752  53.0545 260.3843 0001661  53.9216 306.1926 15.06402485 81162","PERIAPSIS":"546.056","CENTER_NAME":"EARTH","OBJECT_NAME":"STARLINK-1921","MEAN_ELEMENT_THEORY":"SGP4","BSTAR":"0.00001087900000","SITE":"AFETR","EPHEMERIS_TYPE":"0","NORAD_CAT_ID":"46752","RCS_SIZE":"LARGE","TIME_SYSTEM":"UTC","ARG_OF_PERICENTER":"53.9216","OBJECT_TYPE":"PAYLOAD","MEAN_MOTION_DOT":"-0.00000120","REV_AT_EPOCH":"8116","EPOCH":"2022-04-09T20:32:24.688320","APOAPSIS":"548.356","ECCENTRICITY":"0.00016610","GP_ID":"200863266","DECAY_DATE":null,"INCLINATION":"53.0545","TLE_LINE1":"1 46752U 20074P   22099.85584130 -.00000120  00000-0  10879-4 0  9996","REF_FRAME":"TEME","RA_OF_ASC_NODE":"260.3843","OBJECT_ID":"2020-074P","FILE":"3395351","MEAN_ANOMALY":"306.1926","ELEMENT_SET_NO":"999","MEAN_MOTION":"15.06402485","SEMIMAJOR_AXIS":"6925.341","MEAN_MOTION_DDOT":"0.0000000000000","CLASSIFICATION_TYPE":"U"},{"OBJECT_NAME":"STARLINK-1922","LAUNCH_DATE":"2020-10-24","CENTER_NAME":"EARTH","PERIAPSIS":"546.128","TLE_LINE2":"2 46753  53.0539 260.2359 0001573  61.4369 298.6779 15.06398769 81173","COUNTRY_CODE":"US","PERIOD":"95.592","MEAN_MOTION_DOT":"0.00000211","OBJECT_TYPE":"PAYLOAD","ARG_OF_PERICENTER":"61.4369","NORAD_CAT_ID":"46753","EPHEMERIS_TYPE":"0","TIME_SYSTEM":"UTC","RCS_SIZE":"LARGE","BSTAR":"0.00003304300000","MEAN_ELEMENT_THEORY":"SGP4","SITE":"AFETR","TLE_LINE1":"1 46753U 20074Q   22099.88900660  .00000211  00000-0  33043-4 0  9998","INCLINATION":"53.0539","REF_FRAME":"TEME","ECCENTRICITY":"0.00015730","GP_ID":"200863496","DECAY_DATE":null,"APOAPSIS":"548.307","REV_AT_EPOCH":"8117","EPOCH":"2022-04-09T21:20:10.170240","MEAN_MOTION_DDOT":"0.0000000000000","CLASSIFICATION_TYPE":"U","SEMIMAJOR_AXIS":"6925.352","OBJECT_ID":"2020-074Q","RA_OF_ASC_NODE":"260.2359","ELEMENT_SET_NO":"999","FILE":"3395351","MEAN_MOTION":"15.06398769","MEAN_ANOMALY":"298.6779"},{"REV_AT_EPOCH":"8117","EPOCH":"2022-04-09T21:30:47.970720","APOAPSIS":"548.262","GP_ID":"200862271","ECCENTRICITY":"0.00014780","DECAY_DATE":null,"TLE_LINE1":"1 46754U 20074R   22099.89638855 -.00000309  00000-0 -18516-5 0  9993","INCLINATION":"53.0540","REF_FRAME":"TEME","OBJECT_ID":"2020-074R","RA_OF_ASC_NODE":"260.2007","FILE":"3395351","ELEMENT_SET_NO":"999","MEAN_ANOMALY":"294.0250","MEAN_MOTION":"15.06391752","SEMIMAJOR_AXIS":"6925.374","CLASSIFICATION_TYPE":"U","MEAN_MOTION_DDOT":"0.0000000000000","PERIOD":"95.593","COUNTRY_CODE":"US","LAUNCH_DATE":"2020-10-24","CENTER_NAME":"EARTH","PERIAPSIS":"546.215","TLE_LINE2":"2 46754  53.0540 260.2007 0001478  66.0894 294.0250 15.06391752 81173","OBJECT_NAME":"STARLINK-1923","BSTAR":"-0.00000185160000","MEAN_ELEMENT_THEORY":"SGP4","SITE":"AFETR","EPHEMERIS_TYPE":"0","NORAD_CAT_ID":"46754","TIME_SYSTEM":"UTC","RCS_SIZE":"LARGE","ARG_OF_PERICENTER":"66.0894","MEAN_MOTION_DOT":"-0.00000309","OBJECT_TYPE":"PAYLOAD"},{"MEAN_MOTION_DOT":"-0.00001638","OBJECT_TYPE":"PAYLOAD","ARG_OF_PERICENTER":"55.6114","TIME_SYSTEM":"UTC","RCS_SIZE":"LARGE","EPHEMERIS_TYPE":"0","NORAD_CAT_ID":"46755","SITE":"AFETR","BSTAR":"-0.00009109100000","MEAN_ELEMENT_THEORY":"SGP4","OBJECT_NAME":"STARLINK-1924","CENTER_NAME":"EARTH","TLE_LINE2":"2 46755  53.0546 265.4786 0001691  55.6114 304.5034 15.06394036 81093","PERIAPSIS":"546.061","LAUNCH_DATE":"2020-10-24","COUNTRY_CODE":"US","PERIOD":"95.593","CLASSIFICATION_TYPE":"U","MEAN_MOTION_DDOT":"0.0000000000000","SEMIMAJOR_AXIS":"6925.367","FILE":"3395351","ELEMENT_SET_NO":"999","MEAN_ANOMALY":"304.5034","MEAN_MOTION":"15.06394036","OBJECT_ID":"2020-074S","RA_OF_ASC_NODE":"265.4786","TLE_LINE1":"1 46755U 20074S   22099.83511166 -.00001638  00000-0 -91091-4 0  9997","INCLINATION":"53.0546","REF_FRAME":"TEME","DECAY_DATE":null,"ECCENTRICITY":"0.00016910","GP_ID":"200862025","APOAPSIS":"548.403","EPOCH":"2022-04-09T20:02:33.647424","REV_AT_EPOCH":"8109"},{"CENTER_NAME":"EARTH","PERIAPSIS":"546.138","TLE_LINE2":"2 46756  53.0536 265.2309 0001593  63.4240 296.6912 15.06390973 81104","LAUNCH_DATE":"2020-10-24","OBJECT_NAME":"STARLINK-1925","PERIOD":"95.593","COUNTRY_CODE":"US","ARG_OF_PERICENTER":"63.4240","MEAN_MOTION_DOT":"-0.00002198","OBJECT_TYPE":"PAYLOAD","SITE":"AFETR","BSTAR":"-0.00012875000000","MEAN_ELEMENT_THEORY":"SGP4","RCS_SIZE":"LARGE","TIME_SYSTEM":"UTC","NORAD_CAT_ID":"46756","EPHEMERIS_TYPE":"0","DECAY_DATE":null,"ECCENTRICITY":"0.00015930","GP_ID":"200862767","INCLINATION":"53.0536","TLE_LINE1":"1 46756U 20074T   22099.89313445 -.00002198  00000-0 -12875-3 0  9998","REF_FRAME":"TEME","EPOCH":"2022-04-09T21:26:06.816480","REV_AT_EPOCH":"8110","APOAPSIS":"548.344","SEMIMAJOR_AXIS":"6925.376","CLASSIFICATION_TYPE":"U","MEAN_MOTION_DDOT":"0.0000000000000","FILE":"3395351","MEAN_ANOMALY":"296.6912","ELEMENT_SET_NO":"999","MEAN_MOTION":"15.06390973","OBJECT_ID":"2020-074T","RA_OF_ASC_NODE":"265.2309"},{"NORAD_CAT_ID":"46757","EPHEMERIS_TYPE":"0","TIME_SYSTEM":"UTC","RCS_SIZE":"LARGE","MEAN_ELEMENT_THEORY":"SGP4","BSTAR":"0.00001599100000","SITE":"AFETR","OBJECT_TYPE":"PAYLOAD","MEAN_MOTION_DOT":"-0.00000043","ARG_OF_PERICENTER":"67.4312","COUNTRY_CODE":"US","PERIOD":"95.593","OBJECT_NAME":"STARLINK-1926","LAUNCH_DATE":"2020-10-24","TLE_LINE2":"2 46757  53.0526 265.6989 0001567  67.4312 292.6842 15.06392758 81085","PERIAPSIS":"546.151","CENTER_NAME":"EARTH","OBJECT_ID":"2020-074U","RA_OF_ASC_NODE":"265.6989","FILE":"3395351","MEAN_MOTION":"15.06392758","ELEMENT_SET_NO":"999","MEAN_ANOMALY":"292.6842","CLASSIFICATION_TYPE":"U","MEAN_MOTION_DDOT":"0.0000000000000","SEMIMAJOR_AXIS":"6925.371","APOAPSIS":"548.321","REV_AT_EPOCH":"8108","EPOCH":"2022-04-09T18:57:30.027168","INCLINATION":"53.0526","TLE_LINE1":"1 46757U 20074U   22099.78993087 -.00000043  00000-0  15991-4 0  9992","REF_FRAME":"TEME","ECCENTRICITY":"0.00015670","GP_ID":"200862997","DECAY_DATE":null},{"SITE":"AFETR","MEAN_ELEMENT_THEORY":"SGP4","BSTAR":"-0.00010179000000","TIME_SYSTEM":"UTC","RCS_SIZE":"LARGE","NORAD_CAT_ID":"46758","EPHEMERIS_TYPE":"0","ARG_OF_PERICENTER":"41.9069","OBJECT_TYPE":"PAYLOAD","MEAN_MOTION_DOT":"-0.00001797","PERIOD":"95.592","COUNTRY_CODE":"US","PERIAPSIS":"545.817","TLE_LINE2":"2 46758  53.0540 265.2687 0002041  41.9069 318.2075 15.06394494 81102","CENTER_NAME":"EARTH","LAUNCH_DATE":"2020-10-24","OBJECT_NAME":"STARLINK-1928","FILE":"3395351","MEAN_ANOMALY":"318.2075","ELEMENT_SET_NO":"999","MEAN_MOTION":"15.06394494","RA_OF_ASC_NODE":"265.2687","OBJECT_ID":"2020-074V","SEMIMAJOR_AXIS":"6925.365","MEAN_MOTION_DDOT":"0.0000000000000","CLASSIFICATION_TYPE":"U","EPOCH":"2022-04-09T21:11:33.571680","REV_AT_EPOCH":"8110","APOAPSIS":"548.644","DECAY_DATE":null,"ECCENTRICITY":"0.00020410","GP_ID":"200861772","TLE_LINE1":"1 46758U 20074V   22099.88302745 -.00001797  00000-0 -10179-3 0  9999","INCLINATION":"53.0540","REF_FRAME":"TEME"}];
